NORAD_CAT_ID,OBJECT_NAME,OBJECT_TYPE,EPOCH,MEAN_MOTION,ECCENTRICITY,INCLINATION,RA_OF_ASC_NODE,ARG_OF_PERICENTER,MEAN_ANOMALY,BSTAR,MEAN_MOTION_DOT,MEAN_MOTION_DDOT,TLE_LINE0,TLE_LINE1,TLE_LINE2,SEMIMAJOR_AXIS,PERIOD,APOGEE,PERIGEE,DECAYED
55921.0,STARLINK-5861,PAYLOAD,2024-05-26 05:06:04,14.98335258,0.0003375,69.9981,149.5356,270.7937,89.2835,2.839e-05,2.46e-06,0.0,0 STARLINK-5861,1 55921U 23037H   24147.21255036  .00000246  00000-0  28390-4 0  9997,2 55921  69.9981 149.5356 0003375 270.7937  89.2835 14.98335258 66096,6950.177,96.107,574.387,569.696,0.0
55921.0,STARLINK-5861,PAYLOAD,2024-05-26 09:54:28,14.98339612,0.0003207,69.9981,149.0302,268.1542,91.925,6.0851e-05,6.33e-06,0.0,0 STARLINK-5861,1 55921U 23037H   24147.41282593  .00000633  00000-0  60851-4 0  9995,2 55921  69.9981 149.0302 0003207 268.1542  91.9250 14.98339612 65783,6950.163,96.106,574.257,569.799,0.0
55921.0,STARLINK-5861,PAYLOAD,2024-05-26 17:55:08,14.98331001,0.0003221,69.9982,148.1874,271.1029,88.9761,5.1147e-05,5.17e-06,0.0,0 STARLINK-5861,1 55921U 23037H   24147.74663071  .00000517  00000-0  51147-4 0  9994,2 55921  69.9982 148.1874 0003221 271.1029  88.9761 14.98331001 65831,6950.19,96.107,574.293,569.816,0.0
55921.0,STARLINK-5861,PAYLOAD,2024-05-27 05:08:05,14.98324745,0.0003197,69.9981,147.0095,269.9526,90.1267,2.7746e-05,2.38e-06,0.0,0 STARLINK-5861,1 55921U 23037H   24148.21395596  .00000238  00000-0  27746-4 0  9999,2 55921  69.9981 147.0095 0003197 269.9526  90.1267 14.98324745 66241,6950.209,96.107,574.296,569.852,0.0
55921.0,STARLINK-5861,PAYLOAD,2024-05-27 09:56:30,14.98322658,0.0003029,69.9986,146.5048,269.0175,91.0637,3.8989e-05,3.72e-06,0.0,0 STARLINK-5861,1 55921U 23037H   24148.41423791  .00000372  00000-0  38989-4 0  9990,2 55921  69.9986 146.5048 0003029 269.0175  91.0637 14.98322658 65930,6950.216,96.107,574.186,569.975,0.0
55921.0,STARLINK-5861,PAYLOAD,2024-05-27 22:45:34,14.98333511,0.0003136,69.9985,145.1584,271.4301,88.6499,-4.8614e-05,-6.73e-06,0.0,0 STARLINK-5861,1 55921U 23037H   24148.94831386 -.00000673  00000-0 -48614-4 0  9993,2 55921  69.9985 145.1584 0003136 271.4301  88.6499 14.98333511 66014,6950.182,96.107,574.227,569.867,0.0
55921.0,STARLINK-5861,PAYLOAD,2024-05-28 05:10:06,14.98333287,0.0003154,69.9984,144.4852,270.381,89.6988,-4.8194e-05,-6.68e-06,0.0,0 STARLINK-5861,1 55921U 23037H   24149.21535330 -.00000668  00000-0 -48194-4 0  9991,2 55921  69.9984 144.4852 0003154 270.3810  89.6988 14.98333287 66391,6950.183,96.107,574.24,569.856,0.0
55921.0,STARLINK-5861,PAYLOAD,2024-05-28 09:58:30,14.98333521,0.0003164,69.9984,143.9802,271.3436,88.7361,-4.1636e-05,-5.9e-06,0.0,0 STARLINK-5861,1 55921U 23037H   24149.41563261 -.00000590  00000-0 -41636-4 0  9995,2 55921  69.9984 143.9802 0003164 271.3436  88.7361 14.98333521 66088,6950.182,96.107,574.246,569.848,0.0
55921.0,STARLINK-5861,PAYLOAD,2024-05-29 05:12:07,14.98328621,0.0003231,69.9982,141.96,271.3663,88.7126,5.3021e-05,5.4e-06,0.0,0 STARLINK-5861,1 55921U 23037H   24150.21675233  .00000540  00000-0  53021-4 0  9992,2 55921  69.9982 141.9600 0003231 271.3663  88.7126 14.98328621 66542,6950.197,96.107,574.308,569.817,0.0
55921.0,STARLINK-5861,PAYLOAD,2024-05-29 10:00:31,14.98330296,0.0003192,69.9982,141.4551,270.633,89.4464,6.9852e-05,7.41e-06,0.0,0 STARLINK-5861,1 55921U 23037H   24150.41703073  .00000741  00000-0  69852-4 0  9990,2 55921  69.9982 141.4551 0003192 270.6330  89.4464 14.98330296 66231,6950.192,96.107,574.275,569.838,0.0
55921.0,STARLINK-5861,PAYLOAD,2024-05-30 05:14:08,14.98331982,0.0003137,69.9983,139.4351,269.3809,90.6991,3.3394e-05,3.05e-06,0.0,0 STARLINK-5861,1 55921U 23037H   24151.21815024  .00000305  00000-0  33394-4 0  9997,2 55921  69.9983 139.4351 0003137 269.3809  90.6991 14.98331982 66694,6950.187,96.107,574.232,569.871,0.0
55921.0,STARLINK-5861,PAYLOAD,2024-05-30 08:26:24,14.9833201,0.0003127,69.9983,139.0985,269.1238,90.9563,3.295e-05,3e-06,0.0,0 STARLINK-5861,1 55921U 23037H   24151.35167003  .00000300  00000-0  32950-4 0  9991,2 55921  69.9983 139.0985 0003127 269.1238  90.9563 14.98332010 66372,6950.187,96.107,574.225,569.878,0.0
55921.0,STARLINK-5861,PAYLOAD,2024-05-30 22:51:37,14.98330257,0.0002971,69.9988,137.5842,265.8989,94.1831,2.0392e-06,-6.9e-07,0.0,0 STARLINK-5861,1 55921U 23037H   24151.95251158 -.00000069  00000-0  20392-5 0  9993,2 55921  69.9988 137.5842 0002971 265.8989  94.1831 14.98330257 66469,6950.192,96.107,574.122,569.992,0.0
55921.0,STARLINK-5861,PAYLOAD,2024-05-31 05:16:09,14.98328574,0.0003007,69.9986,136.9107,266.7839,93.2976,-1.6946e-05,-2.95e-06,0.0,0 STARLINK-5861,1 55921U 23037H   24152.21955330 -.00000295  00000-0 -16946-4 0  9997,2 55921  69.9986 136.9107 0003007 266.7839  93.2976 14.98328574 66840,6950.197,96.107,574.152,569.972,0.0
55921.0,STARLINK-5861,PAYLOAD,2024-05-31 08:28:25,14.98328777,0.0002984,69.9987,136.5741,266.2466,93.8352,-1.2696e-05,-2.44e-06,0.0,0 STARLINK-5861,1 55921U 23037H   24152.35307310 -.00000244  00000-0 -12696-4 0  9993,2 55921  69.9987 136.5741 0002984 266.2466  93.8352 14.98328777 66529,6950.197,96.107,574.136,569.988,0.0
55921.0,STARLINK-5861,PAYLOAD,2024-05-31 16:29:05,14.98329659,0.0003072,69.9984,135.7318,269.7364,90.3443,-1.3155e-05,-2.5e-06,0.0,0 STARLINK-5861,1 55921U 23037H   24152.68687268 -.00000250  00000-0 -13155-4 0  9990,2 55921  69.9984 135.7318 0003072 269.7364  90.3443 14.98329659 66579,6950.194,96.107,574.194,569.924,0.0
55921.0,STARLINK-5861,PAYLOAD,2024-06-01 05:18:10,14.98329163,0.0003061,69.9984,134.3853,269.5223,90.5586,-1.6823e-06,-1.13e-06,0.0,0 STARLINK-5861,1 55921U 23037H   24153.22095269 -.00000113  00000-0 -16823-5 0  9999,2 55921  69.9984 134.3853 0003061 269.5223  90.5586 14.98329163 66994,6950.195,96.107,574.188,569.933,0.0
55921.0,STARLINK-5861,PAYLOAD,2024-06-01 08:30:26,14.98330067,0.000305,69.9984,134.0486,269.6148,90.4661,9.3238e-06,1.8e-07,0.0,0 STARLINK-5861,1 55921U 23037H   24153.35447189  .00000018  00000-0  93238-5 0  9992,2 55921  69.9984 134.0486 0003050 269.6148  90.4661 14.98330067 66671,6950.193,96.107,574.177,569.938,0.0
55921.0,STARLINK-5861,PAYLOAD,2024-06-02 05:20:11,14.98330947,0.0003076,69.9984,131.8606,269.8056,90.275,5.6042e-05,5.76e-06,0.0,0 STARLINK-5861,1 55921U 23037H   24154.22235005  .00000576  00000-0  56042-4 0  9991,2 55921  69.9984 131.8606 0003076 269.8056  90.2750 14.98330947 67145,6950.19,96.107,574.193,569.917,0.0
55921.0,STARLINK-5861,PAYLOAD,2024-06-02 08:32:27,14.98332349,0.0003059,69.9985,131.5238,269.7855,90.2953,6.979e-05,7.4e-06,0.0,0 STARLINK-5861,1 55921U 23037H   24154.35586868  .00000740  00000-0  69790-4 0  9998,2 55921  69.9985 131.5238 0003059 269.7855  90.2953 14.98332349 66828,6950.186,96.107,574.177,569.925,0.0
55921.0,STARLINK-5861,PAYLOAD,2024-06-03 05:22:12,14.98330588,0.0002991,69.9988,129.3357,269.9315,90.1502,3.2738e-05,2.98e-06,0.0,0 STARLINK-5861,1 55921U 23037H   24155.22375103  .00000298  00000-0  32738-4 0  9993,2 55921  69.9988 129.3357 0002991 269.9315  90.1502 14.98330588 67299,6950.191,96.107,574.135,569.977,0.0
55921.0,STARLINK-5861,PAYLOAD,2024-06-03 08:34:28,14.98331439,0.0002979,69.9989,128.999,270.0221,90.0597,4.1014e-05,3.96e-06,0.0,0 STARLINK-5861,1 55921U 23037H   24155.35727022  .00000396  00000-0  41014-4 0  9994,2 55921  69.9989 128.9990 0002979 270.0221  90.0597 14.98331439 66976,6950.188,96.107,574.124,569.983,0.0
55921.0,STARLINK-5861,PAYLOAD,2024-06-03 14:59:00,14.98331276,0.0002971,69.999,128.3258,270.2366,89.8452,3.968e-05,3.8e-06,0.0,0 STARLINK-5861,1 55921U 23037H   24155.62431014  .00000380  00000-0  39680-4 0  9996,2 55921  69.9990 128.3258 0002971 270.2366  89.8452 14.98331276 67014,6950.189,96.107,574.119,569.989,0.0
55921.0,STARLINK-5861,PAYLOAD,2024-06-04 08:36:28,14.98336744,0.000284,69.9993,126.4747,269.3741,90.7093,5.7071e-05,5.88e-06,0.0,0 STARLINK-5861,1 55921U 23037H   24156.35866472  .00000588  00000-0  57071-4 0  9991,2 55921  69.9993 126.4747 0002840 269.3741  90.7093 14.98336744 67466,6950.172,96.107,574.011,570.063,0.0
55921.0,STARLINK-5861,PAYLOAD,2024-06-04 23:01:41,14.98330595,0.0002832,69.9991,124.9595,271.735,88.3485,1.0905e-05,3.7e-07,0.0,0 STARLINK-5861,1 55921U 23037H   24156.95950877  .00000037  00000-0  10905-4 0  9994,2 55921  69.9991 124.9595 0002832 271.7350  88.3485 14.98330595 67211,6950.191,96.107,574.024,570.088,0.0
55921.0,STARLINK-5861,PAYLOAD,2024-06-05 05:26:13,14.9833114,0.0002819,69.9992,124.2864,270.2333,89.8503,1.6536e-05,1.04e-06,0.0,0 STARLINK-5861,1 55921U 23037H   24157.22654790  .00000104  00000-0  16536-4 0  9991,2 55921  69.9992 124.2864 0002819 270.2333  89.8503 14.98331140 67599,6950.189,96.107,574.014,570.095,0.0
55921.0,STARLINK-5861,PAYLOAD,2024-06-05 08:38:29,14.98332541,0.0002813,69.9992,123.9497,270.4227,89.6609,3.0697e-05,2.73e-06,0.0,0 STARLINK-5861,1 55921U 23037H   24157.36006645  .00000273  00000-0  30697-4 0  9997,2 55921  69.9992 123.9497 0002813 270.4227  89.6609 14.98332541 67271,6950.185,96.107,574.005,570.095,0.0
55921.0,STARLINK-5861,PAYLOAD,2024-06-06 05:28:14,14.98329052,0.0002663,69.9997,121.7609,264.5087,95.5769,-4.4056e-05,-6.19e-06,0.0,0 STARLINK-5861,1 55921U 23037H   24158.22795072 -.00000619  00000-0 -44056-4 0  9992,2 55921  69.9997 121.7609 0002663 264.5087  95.5769 14.98329052 67746,6950.196,96.107,573.912,570.21,0.0
55921.0,STARLINK-5861,PAYLOAD,2024-06-06 07:04:22,14.98329207,0.0002661,69.9997,121.5926,264.6085,95.4771,-4.1562e-05,-5.89e-06,0.0,0 STARLINK-5861,1 55921U 23037H   24158.29471059 -.00000589  00000-0 -41562-4 0  9990,2 55921  69.9997 121.5926 0002661 264.6085  95.4771 14.98329207 67411,6950.195,96.107,573.91,570.211,0.0
55921.0,STARLINK-5861,PAYLOAD,2024-06-06 15:05:02,14.98338746,0.0003085,69.9987,120.7491,269.4667,90.6139,-0.00018609,-2.313e-05,0.0,0 STARLINK-5861,1 55921U 23037H   24158.62850693 -.00002313  00000-0 -18609-3 0  9994,2 55921  69.9987 120.7491 0003085 269.4667  90.6139 14.98338746 67466,6950.166,96.106,574.175,569.887,0.0
